NORAD_CAT_ID,OBJECT_NAME,OBJECT_TYPE,EPOCH,MEAN_MOTION,ECCENTRICITY,INCLINATION,RA_OF_ASC_NODE,ARG_OF_PERICENTER,MEAN_ANOMALY,BSTAR,MEAN_MOTION_DOT,MEAN_MOTION_DDOT,TLE_LINE0,TLE_LINE1,TLE_LINE2,SEMIMAJOR_AXIS,PERIOD,APOGEE,PERIGEE,DECAYED
55644.0,STARLINK-5502,PAYLOAD,2023-09-10 16:59:49,14.98336115,0.0003396,70.0003,321.4231,272.0203,88.0567,8.7749e-05,9.54e-06,0.0,0 STARLINK-5502,1 55644U 23021S   23253.70821359  .00000954  00000-0  87749-4 0  9999,2 55644  70.0003 321.4231 0003396 272.0203  88.0567 14.98336115 32032,6950.174,96.107,574.399,569.679,0.0
55644.0,STARLINK-5502,PAYLOAD,2023-09-10 21:48:14,14.9833109,0.0003283,70.002,320.9172,273.6614,86.417,-1.1587e-05,-2.31e-06,0.0,0 STARLINK-5502,1 55644U 23021S   23253.90849883 -.00000231  00000-0 -11587-4 0  9990,2 55644  70.0020 320.9172 0003283 273.6614  86.4170 14.98331090 32069,6950.19,96.107,574.336,569.773,0.0
55644.0,STARLINK-5502,PAYLOAD,2023-09-11 13:49:34,14.98330412,0.0003292,70.0005,319.2356,268.7857,91.2925,5.7751e-06,-2.4e-07,0.0,0 STARLINK-5502,1 55644U 23021S   23254.57609919 -.00000024  00000-0  57751-5 0  9991,2 55644  70.0005 319.2356 0003292 268.7857  91.2925 14.98330412 32464,6950.192,96.107,574.345,569.769,0.0
55644.0,STARLINK-5502,PAYLOAD,2023-09-11 21:50:15,14.98328446,0.0003421,70.0003,318.3933,270.3858,89.6909,7.0943e-05,7.54e-06,0.0,0 STARLINK-5502,1 55644U 23021S   23254.90989815  .00000754  00000-0  70943-4 0  9990,2 55644  70.0003 318.3933 0003421 270.3858  89.6909 14.98328446 32217,6950.198,96.107,574.44,569.685,0.0
55644.0,STARLINK-5502,PAYLOAD,2023-09-12 12:15:27,14.98334108,0.0003265,70.0004,316.8783,268.6895,91.389,1.3539e-05,6.9e-07,0.0,0 STARLINK-5502,1 55644U 23021S   23255.51073508  .00000069  00000-0  13539-4 0  9998,2 55644  70.0004 316.8783 0003265 268.6895  91.3890 14.98334108 32605,6950.18,96.107,574.314,569.776,0.0
55644.0,STARLINK-5502,PAYLOAD,2023-09-12 13:51:35,14.98334962,0.0003273,70.0003,316.7102,267.1927,92.8857,4.8717e-05,4.88e-06,0.0,0 STARLINK-5502,1 55644U 23021S   23255.57749321  .00000488  00000-0  48717-4 0  9998,2 55644  70.0003 316.7102 0003273 267.1927  92.8857 14.98334962 32615,6950.178,96.107,574.317,569.768,0.0
55644.0,STARLINK-5502,PAYLOAD,2023-09-12 21:52:15,14.98329881,0.0003227,70.0005,315.8674,271.4903,88.5887,5.2399e-05,5.32e-06,0.0,0 STARLINK-5502,1 55644U 23021S   23255.91129595  .00000532  00000-0  52399-4 0  9992,2 55644  70.0005 315.8674 0003227 271.4903  88.5887 14.98329881 32363,6950.193,96.107,574.301,569.815,0.0
55644.0,STARLINK-5502,PAYLOAD,2023-09-13 12:17:27,14.98335816,0.0003332,70.0001,314.3527,268.4154,91.6623,7.7191e-05,8.28e-06,0.0,0 STARLINK-5502,1 55644U 23021S   23256.51212915  .00000828  00000-0  77191-4 0  9993,2 55644  70.0001 314.3527 0003332 268.4154  91.6623 14.98335816 32752,6950.175,96.107,574.356,569.724,0.0
55644.0,STARLINK-5502,PAYLOAD,2023-09-13 13:53:35,14.9833717,0.0003326,70.0001,314.1845,268.5866,91.4912,9.3385e-05,1.022e-05,0.0,0 STARLINK-5502,1 55644U 23021S   23256.57888758  .00001022  00000-0  93385-4 0  9993,2 55644  70.0001 314.1845 0003326 268.5866  91.4912 14.98337170 32469,6950.171,96.107,574.347,569.724,0.0
55644.0,STARLINK-5502,PAYLOAD,2023-09-14 10:43:22,14.98314265,0.0002883,70.0015,311.9989,261.6891,98.3942,-0.000201,-2.489e-05,0.0,0 STARLINK-5502,1 55644U 23021S   23257.44679284 -.00002489  00000-0 -20100-3 0  9996,2 55644  70.0015 311.9989 0002883 261.6891  98.3942 14.98314265 32590,6950.242,96.108,574.11,570.103,0.0
55644.0,STARLINK-5502,PAYLOAD,2023-09-14 12:19:31,14.98310405,0.0002751,70.0017,311.831,256.5746,103.5107,-0.00020406,-2.526e-05,0.0,0 STARLINK-5502,1 55644U 23021S   23257.51355660 -.00002526  00000-0 -20406-3 0  9994,2 55644  70.0017 311.8310 0002751 256.5746 103.5107 14.98310405 32904,6950.253,96.108,574.031,570.206,0.0
55644.0,STARLINK-5502,PAYLOAD,2023-09-14 13:55:39,14.98309927,0.000277,70.0016,311.6624,258.3278,101.7571,-0.00020842,-2.578e-05,0.0,0 STARLINK-5502,1 55644U 23021S   23257.58031781 -.00002578  00000-0 -20842-3 0  9997,2 55644  70.0016 311.6624 0002770 258.3278 101.7571 14.98309927 32913,6950.255,96.108,574.045,570.195,0.0
55644.0,STARLINK-5502,PAYLOAD,2023-09-15 04:20:51,14.98322274,0.0003537,69.9995,310.1455,273.8681,86.2074,-9.6011e-05,-1.238e-05,0.0,0 STARLINK-5502,1 55644U 23021S   23258.18115041 -.00001238  00000-0 -96011-4 0  9990,2 55644  69.9995 310.1455 0003537 273.8681  86.2074 14.98322274 32706,6950.217,96.107,574.54,569.623,0.0
55644.0,STARLINK-5502,PAYLOAD,2023-09-15 12:21:31,14.98326228,0.000345,69.9996,309.3038,271.8811,88.1953,-4.3989e-05,-6.18e-06,0.0,0 STARLINK-5502,1 55644U 23021S   23258.51494781 -.00000618  00000-0 -43989-4 0  9995,2 55644  69.9996 309.3038 0003450 271.8811  88.1953 14.98326228 33050,6950.205,96.107,574.467,569.672,0.0
55644.0,STARLINK-5502,PAYLOAD,2023-09-15 20:22:11,14.98331393,0.0003478,69.9994,308.4622,269.3807,90.6953,-4.1934e-05,-5.93e-06,0.0,0 STARLINK-5502,1 55644U 23021S   23258.84874494 -.00000593  00000-0 -41934-4 0  9994,2 55644  69.9994 308.4622 0003478 269.3807  90.6953 14.98331393 32803,6950.189,96.107,574.471,569.636,0.0
55644.0,STARLINK-5502,PAYLOAD,2023-09-16 12:23:32,14.98327502,0.0003517,69.9992,306.7785,269.6154,90.4602,0.00021593,2.484e-05,0.0,0 STARLINK-5502,1 55644U 23021S   23259.51634265  .00002484  00000-0  21593-3 0  9996,2 55644  69.9992 306.7785 0003517 269.6154  90.4602 14.98327502 33205,6950.201,96.107,574.51,569.621,0.0
55644.0,STARLINK-5502,PAYLOAD,2023-09-16 20:24:12,14.98329896,0.0003495,69.9992,305.9366,270.0856,89.9903,0.00017088,1.946e-05,0.0,0 STARLINK-5502,1 55644U 23021S   23259.85014260  .00001946  00000-0  17088-3 0  9996,2 55644  69.9992 305.9366 0003495 270.0856  89.9903 14.98329896 32957,6950.193,96.107,574.487,569.629,0.0
55644.0,STARLINK-5502,PAYLOAD,2023-09-17 12:25:32,14.9833573,0.000336,69.9993,304.2536,268.9554,91.122,0.00011219,1.246e-05,0.0,0 STARLINK-5502,1 55644U 23021S   23260.51773939  .00001246  00000-0  11219-3 0  9999,2 55644  69.9993 304.2536 0003360 268.9554  91.1220 14.98335730 33357,6950.175,96.107,574.375,569.705,0.0
55644.0,STARLINK-5502,PAYLOAD,2023-09-18 02:50:45,14.98334317,0.0003397,69.9997,302.738,269.4028,90.6742,2.5313e-05,2.09e-06,0.0,0 STARLINK-5502,1 55644U 23021S   23261.11857970  .00000209  00000-0  25313-4 0  9993,2 55644  69.9997 302.7380 0003397 269.4028  90.6742 14.98334317 33143,6950.18,96.107,574.406,569.684,0.0
55644.0,STARLINK-5502,PAYLOAD,2023-09-18 12:27:33,14.98336918,0.0003261,69.9996,301.7288,268.5214,91.5571,-2.5828e-05,-4.01e-06,0.0,0 STARLINK-5502,1 55644U 23021S   23261.51913770 -.00000401  00000-0 -25828-4 0  9995,2 55644  69.9996 301.7288 0003261 268.5214  91.5571 14.98336918 33504,6950.171,96.107,574.303,569.77,0.0
55644.0,STARLINK-5502,PAYLOAD,2023-09-18 20:28:13,14.9833593,0.0003329,69.9994,300.8861,270.1655,89.9123,-4.2436e-05,-5.99e-06,0.0,0 STARLINK-5502,1 55644U 23021S   23261.85293703 -.00000599  00000-0 -42436-4 0  9991,2 55644  69.9994 300.8861 0003329 270.1655  89.9123 14.98335930 33554,6950.175,96.107,574.353,569.726,0.0
55644.0,STARLINK-5502,PAYLOAD,2023-09-19 02:52:45,14.98335623,0.0003432,69.9989,300.213,269.7213,90.3553,-2.4006e-06,-1.22e-06,0.0,0 STARLINK-5502,1 55644U 23021S   23262.11997444 -.00000122  00000-0 -24006-5 0  9990,2 55644  69.9989 300.2130 0003432 269.7213  90.3553 14.98335623 33293,6950.176,96.107,574.426,569.655,0.0
55644.0,STARLINK-5502,PAYLOAD,2023-09-20 02:54:47,14.98322331,0.0003436,69.9986,297.6885,268.9443,91.1322,-8.5907e-05,-1.118e-05,0.0,0 STARLINK-5502,1 55644U 23021S   23263.12138141 -.00001118  00000-0 -85907-4 0  9995,2 55644  69.9986 297.6885 0003436 268.9443  91.1322 14.98322331 33448,6950.217,96.107,574.47,569.694,0.0
55644.0,STARLINK-5502,PAYLOAD,2023-09-20 14:07:43,14.9832895,0.0003471,69.9984,296.5101,269.3315,90.7446,-5.8096e-05,-7.86e-06,0.0,0 STARLINK-5502,1 55644U 23021S   23263.58869751 -.00000786  00000-0 -58096-4 0  9992,2 55644  69.9984 296.5101 0003471 269.3315  90.7446 14.98328950 33813,6950.196,96.107,574.474,569.649,0.0
55644.0,STARLINK-5502,PAYLOAD,2023-09-20 17:19:59,14.98328499,0.0003467,69.9984,296.1735,269.3053,90.7709,-5.2283e-05,-7.17e-06,0.0,0 STARLINK-5502,1 55644U 23021S   23263.72221770 -.00000717  00000-0 -52283-4 0  9997,2 55644  69.9984 296.1735 0003467 269.3053  90.7709 14.98328499 33535,6950.198,96.107,574.472,569.653,0.0
55644.0,STARLINK-5502,PAYLOAD,2023-09-20 20:32:15,14.98326447,0.0003464,69.9984,295.8366,269.7248,90.3514,-7.4426e-05,-9.81e-06,0.0,0 STARLINK-5502,1 55644U 23021S   23263.85573980 -.00000981  00000-0 -74426-4 0  9990,2 55644  69.9984 295.8366 0003464 269.7248  90.3514 14.98326447 33854,6950.204,96.107,574.476,569.661,0.0
55644.0,STARLINK-5502,PAYLOAD,2023-09-21 12:33:36,14.98331699,0.0003451,69.9983,294.1534,269.2038,90.8726,-3.7296e-06,-1.38e-06,0.0,0 STARLINK-5502,1 55644U 23021S   23264.52333533 -.00000138  00000-0 -37296-5 0  9992,2 55644  69.9983 294.1534 0003451 269.2038  90.8726 14.98331699 33956,6950.188,96.107,574.451,569.654,0.0
55644.0,STARLINK-5502,PAYLOAD,2023-09-21 17:22:00,14.98333904,0.0003459,69.9983,293.6483,269.3337,90.7426,-2.5843e-05,-4.01e-06,0.0,0 STARLINK-5502,1 55644U 23021S   23264.72361414 -.00000401  00000-0 -25843-4 0  9990,2 55644  69.9983 293.6483 0003459 269.3337  90.7426 14.98333904 33681,6950.181,96.107,574.45,569.642,0.0
55644.0,STARLINK-5502,PAYLOAD,2023-09-21 20:34:16,14.98331959,0.0003417,69.9983,293.3117,269.0665,91.0103,-5.3358e-05,-7.3e-06,0.0,0 STARLINK-5502,1 55644U 23021S   23264.85713600 -.00000730  00000-0 -53358-4 0  9999,2 55644  69.9983 293.3117 0003417 269.0665  91.0103 14.98331959 34008,6950.187,96.107,574.427,569.677,0.0
55644.0,STARLINK-5502,PAYLOAD,2023-09-22 12:35:36,14.98331376,0.0003442,69.9982,291.6283,268.6281,91.4484,0.00012356,1.382e-05,0.0,0 STARLINK-5502,1 55644U 23021S   23265.52473248  .00001382  00000-0  12356-3 0  9999,2 55644  69.9982 291.6283 0003442 268.6281  91.4484 14.98331376 34109,6950.189,96.107,574.446,569.661,0.0
